OBJECT_NAME,OBJECT_ID,EPOCH,MEAN_MOTION,ECCENTRICITY,INCLINATION,RA_OF_ASC_NODE,ARG_OF_PERICENTER,MEAN_ANOMALY,EPHEMERIS_TYPE,CLASSIFICATION_TYPE,NORAD_CAT_ID,ELEMENT_SET_NO,REV_AT_EPOCH,BSTAR,MEAN_MOTION_DOT,MEAN_MOTION_DDOT
NORBI,2020-068J,2026-07-22T07:04:49.187136,15.49855676,.00086394,97.8621,222.3920,123.3694,236.8384,0,U,46494,999,32164,.49698511E-3,.27706E-3,0
SALSAT,2020-068K,2026-07-22T00:05:06.375264,15.30238203,.00099248,97.8867,208.2016,169.3819,190.7631,0,U,46495,999,32068,.25647661E-3,.7429E-4,0
ICEYE-X6,2020-068M,2026-07-22T05:43:37.200000,15.04691763,.00064882,98.0997,198.5930,349.5101,10.5987,0,U,46497,999,31850,.17035575E-3,.233E-4,0
NETSAT-4,2020-068U,2026-07-21T06:28:32.346912,15.44889408,.00055019,97.8612,213.2778,172.2296,187.9038,0,U,46504,999,32103,.29595451E-3,.13816E-3,0
NETSAT-3,2020-068V,2026-07-22T00:21:11.961792,15.43774416,.00046608,97.8664,212.2581,184.8573,175.2630,0,U,46505,999,32105,.43820067E-3,.19756E-3,0
NETSAT-1,2020-068W,2026-07-21T22:41:27.481344,15.35353606,.00029553,97.8765,206.0946,224.6568,135.4436,0,U,46506,999,32063,.37931549E-3,.12945E-3,0
NETSAT-2,2020-068X,2026-07-21T21:44:26.420640,15.47372394,.00031492,97.8624,213.9959,182.0467,178.0769,0,U,46507,999,32110,.4772301E-3,.2435E-3,0
TIANQI-6,2020-076D,2026-07-22T05:50:33.139968,15.07381084,.00095546,34.9974,193.2765,122.1785,237.9853,0,U,46810,999,31387,.19952996E-3,.3055E-4,0
KSM1-C,2020-081B,2026-07-22T06:31:59.399328,15.27245323,.00023443,36.8935,202.2514,193.4037,166.6650,0,U,46906,999,31453,.26375935E-3,.7117E-4,0
KSM1-D,2020-081C,2026-07-22T07:42:41.468256,15.25156958,.00040743,36.8945,211.6469,205.6233,154.4314,0,U,46907,999,31446,.23664947E-3,.598E-4,0
KSM1-A,2020-081H,2026-07-22T07:03:00.133056,15.26437782,.00041979,36.8941,204.7822,248.3184,111.7118,0,U,46912,999,31454,.26801133E-3,.7057E-4,0
R2,2020-081J,2026-07-22T04:43:26.334048,15.25886481,.00090603,36.8966,205.5444,224.3691,135.6333,0,U,46913,999,31733,.28605862E-3,.742E-4,0
KSM1-B,2020-081K,2026-07-22T06:20:30.792192,15.24938196,.00059869,36.8999,212.6894,220.9923,139.0377,0,U,46914,999,31754,.1961105E-3,.4906E-4,0
GONETS-M 20,2020-091A,2026-07-22T06:19:35.758848,12.42895162,.00222019,82.5037,280.6340,104.3771,255.9775,0,U,47227,999,25543,.96512364E-3,.144E-5,0
GONETS-M 21,2020-091B,2026-07-22T05:42:13.171680,12.42887961,.00159976,82.4960,279.3356,117.6840,242.5865,0,U,47228,999,25542,.67387618E-3,.103E-5,0
GONETS-M 22,2020-091C,2026-07-22T06:59:09.942720,12.42893793,.00230414,82.5018,280.2173,99.7950,260.5733,0,U,47229,999,25538,-.85084E-7,.1E-6,0
CUBEL,2021-006AM,2026-07-22T01:55:08.842080,15.42187730,.00074147,97.2310,253.3539,62.8135,297.3867,0,U,47448,999,30513,.49497927E-3,.21196E-3,0
ARKTIKA-M 1,2021-016A,2026-07-17T21:31:16.955328,2.00610215,.72985164,63.2571,53.1467,270.0868,14.5016,0,U,47719,999,3940,0,-.295E-5,0
STARLINK-2342,2021-021Z,2026-07-22T08:00:01.999872,15.97131842,.00116419,53.1498,329.9973,321.9315,290.1704,0,U,47883,999,603,.10268659E-2,.459132E-2,.9832372E-4
GRUS-1B,2021-022C,2026-07-22T07:03:28.911168,14.98795253,.00146661,97.5339,85.3184,190.8082,169.2828,0,U,47934,999,29115,.13814273E-3,.1611E-4,0
UNISAT-7,2021-022P,2026-07-21T16:57:35.908704,15.41317518,.00070667,97.3844,108.0060,321.5658,38.5084,0,U,47945,999,29517,.32533653E-3,.13488E-3,0
GLOBAL-9,2021-023G,2026-07-21T20:36:55.873728,15.47807344,.00043131,44.9818,55.4613,211.2117,148.8518,0,U,47971,999,30031,.44647524E-3,.2342E-3,0
AII-BRAVO,2021-034C,2026-07-22T02:13:16.778784,15.03713083,.00069604,97.5608,257.2081,138.8561,221.3191,0,U,48270,999,28486,.3170604E-3,.429E-4,0
TYVAK-182A,2021-034D,2026-07-22T03:20:05.642016,15.06439084,.00054784,97.5701,261.4523,193.7132,166.3947,0,U,48271,999,28509,.21556297E-3,.3118E-4,0
CSS (TIANHE),2021-035A,2026-07-22T00:12:51.623712,15.58239681,.00014657,41.4674,110.5280,308.5381,51.5326,0,U,48274,999,29860,.12634043E-3,.951E-4,0
TYVAK-0130,2021-041BF,2026-07-21T10:54:20.742336,15.27989097,.0008411,52.9943,226.8908,283.2567,76.7492,0,U,48606,999,28562,.16026598E-3,.4087E-4,0
HAIYANG-2D,2021-043A,2026-07-22T06:47:47.387904,13.83373423,.00116253,65.9965,217.3225,264.9196,95.0545,0,U,48621,999,26140,-.87453065E-4,-.178E-5,0
2021-050D,2021-050D,2026-07-22T06:39:54.227808,15.23642370,.0006969,97.3321,278.5188,132.7015,227.4811,0,U,48843,999,28430,.20604419E-3,.4871E-4,0
