NORBI                   
1 46494U 20068J   26203.29501374  .00027706  00000+0  49699-3 0  9998
2 46494  97.8621 222.3920 0008639 123.3694 236.8384 15.49855676321642
SALSAT                  
1 46495U 20068K   26203.00354601  .00007429  00000+0  25648-3 0  9995
2 46495  97.8867 208.2016 0009924 169.3819 190.7631 15.30238203320688
ICEYE-X6                
1 46497U 20068M   26203.23862500  .00002330  00000+0  17036-3 0  9992
2 46497  98.0997 198.5930 0006488 349.5101  10.5987 15.04691763318507
NETSAT-4                
1 46504U 20068U   26202.26981883  .00013816  00000+0  29595-3 0  9993
2 46504  97.8612 213.2778 0005501 172.2296 187.9038 15.44889408321030
NETSAT-3                
1 46505U 20068V   26203.01472178  .00019756  00000+0  43820-3 0  9996
2 46505  97.8664 212.2581 0004660 184.8573 175.2630 15.43774416321052
NETSAT-1                
1 46506U 20068W   26202.94545696  .00012945  00000+0  37932-3 0  9994
2 46506  97.8765 206.0946 0002955 224.6568 135.4436 15.35353606320633
NETSAT-2                
1 46507U 20068X   26202.90586135  .00024350  00000+0  47723-3 0  9996
2 46507  97.8624 213.9959 0003149 182.0467 178.0769 15.47372394321103
TIANQI-6                
1 46810U 20076D   26203.24343912  .00003055  00000+0  19953-3 0  9997
2 46810  34.9974 193.2765 0009554 122.1785 237.9853 15.07381084313875
KSM1-C                  
1 46906U 20081B   26203.27221527  .00007117  00000+0  26376-3 0  9999
2 46906  36.8935 202.2514 0002344 193.4037 166.6650 15.27245323314537
KSM1-D                  
1 46907U 20081C   26203.32131329  .00005980  00000+0  23665-3 0  9990
2 46907  36.8945 211.6469 0004074 205.6233 154.4314 15.25156958314465
KSM1-A                  
1 46912U 20081H   26203.29375154  .00007057  00000+0  26801-3 0  9990
2 46912  36.8941 204.7822 0004197 248.3184 111.7118 15.26437782314543
R2                      
1 46913U 20081J   26203.19683257  .00007420  00000+0  28606-3 0  9995
2 46913  36.8966 205.5444 0009060 224.3691 135.6333 15.25886481317338
KSM1-B                  
1 46914U 20081K   26203.26424528  .00004906  00000+0  19611-3 0  9990
2 46914  36.8999 212.6894 0005986 220.9923 139.0377 15.24938196317545
GONETS-M 20             
1 47227U 20091A   26203.26360832  .00000144  00000+0  96512-3 0  9991
2 47227  82.5037 280.6340 0022201 104.3771 255.9775 12.42895162255431
GONETS-M 21             
1 47228U 20091B   26203.23765245  .00000103  00000+0  67388-3 0  9990
2 47228  82.4960 279.3356 0015997 117.6840 242.5865 12.42887961255425
GONETS-M 22             
1 47229U 20091C   26203.29108730  .00000010  00000+0 -85084-7 0  9992
2 47229  82.5018 280.2173 0023041  99.7950 260.5733 12.42893793255389
CUBEL                   
1 47448U 21006AM  26203.07996345  .00021196  00000+0  49498-3 0  9997
2 47448  97.2310 253.3539 0007414  62.8135 297.3867 15.42187730305134
ARKTIKA-M 1             
1 47719U 21016A   26198.89672402 -.00000295  00000+0  00000+0 0  9997
2 47719  63.2571  53.1467 7298516 270.0868  14.5016  2.00610215 39409
STARLINK-2342           
1 47883U 21021Z   26203.33335648  .00459132  98324-4  10269-2 0  9998
2 47883  53.1498 329.9973 0011641 321.9315 290.1704 15.97131842  6034
GRUS-1B                 
1 47934U 21022C   26203.29408462  .00001611  00000+0  13814-3 0  9990
2 47934  97.5339  85.3184 0014666 190.8082 169.2828 14.98795253291152
UNISAT-7                
1 47945U 21022P   26202.70666561  .00013488  00000+0  32534-3 0  9998
2 47945  97.3844 108.0060 0007066 321.5658  38.5084 15.41317518295178
GLOBAL-9                
1 47971U 21023G   26202.85898002  .00023420  00000+0  44648-3 0  9997
2 47971  44.9818  55.4613 0004313 211.2117 148.8518 15.47807344300319
AII-BRAVO               
1 48270U 21034C   26203.09255531  .00004290  00000+0  31706-3 0  9998
2 48270  97.5608 257.2081 0006960 138.8561 221.3191 15.03713083284864
TYVAK-182A              
1 48271U 21034D   26203.13895419  .00003118  00000+0  21556-3 0  9999
2 48271  97.5701 261.4523 0005478 193.7132 166.3947 15.06439084285096
CSS (TIANHE)            
1 48274U 21035A   26203.00893083  .00009510  00000+0  12634-3 0  9993
2 48274  41.4674 110.5280 0001465 308.5381  51.5326 15.58239681298609
TYVAK-0130              
1 48606U 21041BF  26202.45440674  .00004087  00000+0  16027-3 0  9995
2 48606  52.9943 226.8908 0008411 283.2567  76.7492 15.27989097285625
HAIYANG-2D              
1 48621U 21043A   26203.28318736 -.00000178  00000+0 -87453-4 0  9990
2 48621  65.9965 217.3225 0011625 264.9196  95.0545 13.83373423261405
2021-050D               
1 48843U 21050D   26203.27771097  .00004871  00000+0  20604-3 0  9992
2 48843  97.3321 278.5188 0006969 132.7015 227.4811 15.23642370284307
